start=new Date('2022-11-07T00:00:00.000Z').valueOf();
sats=[{"OBJECT_TYPE":"PAYLOAD","ECCENTRICITY":"0.00024980","NORAD_CAT_ID":"49452","ELEMENT_SET_NO":"999","RCS_SIZE":"LARGE","EPOCH":"2022-11-06T06:03:33.875424","PERIOD":"95.438","APOAPSIS":"541.494","TIME_SYSTEM":"UTC","LAUNCH_DATE":"2021-11-13","TLE_LINE2":"2 49452  53.2167 293.3947 0002498  31.5010 328.6132 15.08833242 54684","RA_OF_ASC_NODE":"293.3947","INCLINATION":"53.2167","EPHEMERIS_TYPE":"0","SITE":"AFETR","DECAY_DATE":null,"MEAN_MOTION_DOT":"-0.00001781","MEAN_ELEMENT_THEORY":"SGP4","PERIAPSIS":"538.038","CLASSIFICATION_TYPE":"U","ARG_OF_PERICENTER":"31.5010","MEAN_MOTION":"15.08833242","GP_ID":"217058120","SEMIMAJOR_AXIS":"6917.901","MEAN_MOTION_DDOT":"0.0000000000000","CENTER_NAME":"EARTH","BSTAR":"-0.00009384000000","REV_AT_EPOCH":"5468","OBJECT_ID":"2021-104AW","FILE":"3647066","TLE_LINE1":"1 49452U 21104AW  22310.25247541 -.00001781  00000-0 -93840-4 0  9997","REF_FRAME":"TEME","OBJECT_NAME":"STARLINK-3150","MEAN_ANOMALY":"328.6132","COUNTRY_CODE":"US"},{"BSTAR":"-0.00019813000000","REV_AT_EPOCH":"5468","OBJECT_ID":"2021-104AX","CENTER_NAME":"EARTH","MEAN_MOTION_DDOT":"0.0000000000000","SEMIMAJOR_AXIS":"6917.952","MEAN_MOTION":"15.08816579","GP_ID":"217058371","COUNTRY_CODE":"US","MEAN_ANOMALY":"331.6364","OBJECT_NAME":"STARLINK-3129","TLE_LINE1":"1 49453U 21104AX  22310.25888058 -.00003438  00000-0 -19813-3 0  9990","FILE":"3647066","REF_FRAME":"TEME","TLE_LINE2":"2 49453  53.2164 293.3680 0002494  28.4764 331.6364 15.08816579 54688","RA_OF_ASC_NODE":"293.3680","LAUNCH_DATE":"2021-11-13","TIME_SYSTEM":"UTC","APOAPSIS":"541.542","PERIOD":"95.439","EPOCH":"2022-11-06T06:12:47.282112","RCS_SIZE":"LARGE","ELEMENT_SET_NO":"999","NORAD_CAT_ID":"49453","ECCENTRICITY":"0.00024940","OBJECT_TYPE":"PAYLOAD","CLASSIFICATION_TYPE":"U","ARG_OF_PERICENTER":"28.4764","PERIAPSIS":"538.092","MEAN_ELEMENT_THEORY":"SGP4","MEAN_MOTION_DOT":"-0.00003438","DECAY_DATE":null,"SITE":"AFETR","INCLINATION":"53.2164","EPHEMERIS_TYPE":"0"},{"SEMIMAJOR_AXIS":"6917.886","MEAN_MOTION_DDOT":"0.0000000000000","CENTER_NAME":"EARTH","OBJECT_ID":"2021-104AY","BSTAR":"0.00007135800000","REV_AT_EPOCH":"5584","GP_ID":"217060587","MEAN_MOTION":"15.08838229","MEAN_ANOMALY":"314.4007","COUNTRY_CODE":"US","TLE_LINE1":"1 49454U 21104AY  22310.79247662  .00000848  00000-0  71358-4 0  9993","FILE":"3647112","REF_FRAME":"TEME","OBJECT_NAME":"STARLINK-3160","APOAPSIS":"541.078","TIME_SYSTEM":"UTC","LAUNCH_DATE":"2021-11-13","RA_OF_ASC_NODE":"290.9689","TLE_LINE2":"2 49454  53.2166 290.9689 0001919  45.7142 314.4007 15.08838229 55844","OBJECT_TYPE":"PAYLOAD","ECCENTRICITY":"0.00019190","NORAD_CAT_ID":"49454","ELEMENT_SET_NO":"999","RCS_SIZE":"LARGE","PERIOD":"95.438","EPOCH":"2022-11-06T19:01:09.979968","MEAN_ELEMENT_THEORY":"SGP4","PERIAPSIS":"538.423","ARG_OF_PERICENTER":"45.7142","CLASSIFICATION_TYPE":"U","EPHEMERIS_TYPE":"0","INCLINATION":"53.2166","SITE":"AFETR","DECAY_DATE":null,"MEAN_MOTION_DOT":"0.00000848"},{"MEAN_ELEMENT_THEORY":"SGP4","CLASSIFICATION_TYPE":"U","ARG_OF_PERICENTER":"24.8389","PERIAPSIS":"537.634","SITE":"AFETR","INCLINATION":"53.2184","EPHEMERIS_TYPE":"0","MEAN_MOTION_DOT":"-0.00000085","DECAY_DATE":null,"TIME_SYSTEM":"UTC","APOAPSIS":"541.820","TLE_LINE2":"2 49455  53.2184 292.5233 0003026  24.8389 335.2749 15.08846059 54719","RA_OF_ASC_NODE":"292.5233","LAUNCH_DATE":"2021-11-13","ELEMENT_SET_NO":"999","NORAD_CAT_ID":"49455","ECCENTRICITY":"0.00030260","OBJECT_TYPE":"PAYLOAD","EPOCH":"2022-11-06T10:43:01.965792","PERIOD":"95.437","RCS_SIZE":"LARGE","MEAN_ANOMALY":"335.2749","COUNTRY_CODE":"US","TLE_LINE1":"1 49455U 21104AZ  22310.44655053 -.00000085  00000-0  12805-4 0  9999","REF_FRAME":"TEME","FILE":"3647066","OBJECT_NAME":"STARLINK-3145","SEMIMAJOR_AXIS":"6917.862","MEAN_MOTION_DDOT":"0.0000000000000","REV_AT_EPOCH":"5471","BSTAR":"0.00001280500000","OBJECT_ID":"2021-104AZ","CENTER_NAME":"EARTH","MEAN_MOTION":"15.08846059","GP_ID":"217057369"},{"TIME_SYSTEM":"UTC","APOAPSIS":"541.746","TLE_LINE2":"2 49456  53.2169 293.6795 0002843  28.6124 331.5024 15.08829073 55749","RA_OF_ASC_NODE":"293.6795","LAUNCH_DATE":"2021-11-13","ECCENTRICITY":"0.00028430","NORAD_CAT_ID":"49456","ELEMENT_SET_NO":"999","OBJECT_TYPE":"PAYLOAD","EPOCH":"2022-11-06T04:32:06.654624","PERIOD":"95.438","RCS_SIZE":"LARGE","MEAN_ELEMENT_THEORY":"SGP4","CLASSIFICATION_TYPE":"U","ARG_OF_PERICENTER":"28.6124","PERIAPSIS":"537.812","SITE":"AFETR","INCLINATION":"53.2169","EPHEMERIS_TYPE":"0","MEAN_MOTION_DOT":"-0.00002532","DECAY_DATE":null,"MEAN_MOTION_DDOT":"0.0000000000000","SEMIMAJOR_AXIS":"6917.914","BSTAR":"-0.00014104000000","REV_AT_EPOCH":"5574","OBJECT_ID":"2021-104BA","CENTER_NAME":"EARTH","MEAN_MOTION":"15.08829073","GP_ID":"217022361","MEAN_ANOMALY":"331.5024","COUNTRY_CODE":"US","TLE_LINE1":"1 49456U 21104BA  22310.18896591 -.00002532  00000-0 -14104-3 0  9998","REF_FRAME":"TEME","FILE":"3646535","OBJECT_NAME":"STARLINK-3124"},{"COUNTRY_CODE":"US","MEAN_ANOMALY":"321.5429","OBJECT_NAME":"STARLINK-3132","TLE_LINE1":"1 49457U 21104BB  22310.64160124 -.00001591  00000-0 -81854-4 0  9997","FILE":"3647098","REF_FRAME":"TEME","CENTER_NAME":"EARTH","OBJECT_ID":"2021-104BB","REV_AT_EPOCH":"5581","BSTAR":"-0.00008185400000","SEMIMAJOR_AXIS":"6917.898","MEAN_MOTION_DDOT":"0.0000000000000","GP_ID":"217060649","MEAN_MOTION":"15.08834390","PERIAPSIS":"538.081","ARG_OF_PERICENTER":"38.5737","CLASSIFICATION_TYPE":"U","MEAN_ELEMENT_THEORY":"SGP4","DECAY_DATE":null,"MEAN_MOTION_DOT":"-0.00001591","EPHEMERIS_TYPE":"0","INCLINATION":"53.2173","SITE":"AFETR","LAUNCH_DATE":"2021-11-13","RA_OF_ASC_NODE":"291.6552","TLE_LINE2":"2 49457  53.2173 291.6552 0002431  38.5737 321.5429 15.08834390 55811","APOAPSIS":"541.444","TIME_SYSTEM":"UTC","RCS_SIZE":"LARGE","PERIOD":"95.438","EPOCH":"2022-11-06T15:23:54.347136","OBJECT_TYPE":"PAYLOAD","NORAD_CAT_ID":"49457","ECCENTRICITY":"0.00024310","ELEMENT_SET_NO":"999"},{"COUNTRY_CODE":"US","MEAN_ANOMALY":"331.8216","OBJECT_NAME":"STARLINK-3156","FILE":"3647066","TLE_LINE1":"1 49458U 21104BC  22310.31776925 -.00002750  00000-0 -15477-3 0  9999","REF_FRAME":"TEME","REV_AT_EPOCH":"5469","BSTAR":"-0.00015477000000","OBJECT_ID":"2021-104BC","CENTER_NAME":"EARTH","MEAN_MOTION_DDOT":"0.0000000000000","SEMIMAJOR_AXIS":"6917.928","MEAN_MOTION":"15.08824452","GP_ID":"217056620","CLASSIFICATION_TYPE":"U","ARG_OF_PERICENTER":"28.2918","PERIAPSIS":"537.976","MEAN_ELEMENT_THEORY":"SGP4","MEAN_MOTION_DOT":"-0.00002750","DECAY_DATE":null,"SITE":"AFETR","INCLINATION":"53.2155","EPHEMERIS_TYPE":"0","TLE_LINE2":"2 49458  53.2155 293.1054 0002626  28.2918 331.8216 15.08824452 54690","RA_OF_ASC_NODE":"293.1054","LAUNCH_DATE":"2021-11-13","TIME_SYSTEM":"UTC","APOAPSIS":"541.610","EPOCH":"2022-11-06T07:37:35.263200","PERIOD":"95.439","RCS_SIZE":"LARGE","ECCENTRICITY":"0.00026260","NORAD_CAT_ID":"49458","ELEMENT_SET_NO":"999","OBJECT_TYPE":"PAYLOAD"},{"APOAPSIS":"542.049","TIME_SYSTEM":"UTC","LAUNCH_DATE":"2021-11-13","RA_OF_ASC_NODE":"292.5581","TLE_LINE2":"2 49459  53.2174 292.5581 0003293  22.7441 337.3697 15.08831570 54717","OBJECT_TYPE":"PAYLOAD","ECCENTRICITY":"0.00032930","ELEMENT_SET_NO":"999","NORAD_CAT_ID":"49459","RCS_SIZE":"LARGE","PERIOD":"95.438","EPOCH":"2022-11-06T10:32:26.827296","MEAN_ELEMENT_THEORY":"SGP4","PERIAPSIS":"537.493","ARG_OF_PERICENTER":"22.7441","CLASSIFICATION_TYPE":"U","EPHEMERIS_TYPE":"0","INCLINATION":"53.2174","SITE":"AFETR","DECAY_DATE":null,"MEAN_MOTION_DOT":"-0.00001455","MEAN_MOTION_DDOT":"0.0000000000000","SEMIMAJOR_AXIS":"6917.906","CENTER_NAME":"EARTH","OBJECT_ID":"2021-104BD","REV_AT_EPOCH":"5471","BSTAR":"-0.00007331600000","GP_ID":"217056870","MEAN_MOTION":"15.08831570","MEAN_ANOMALY":"337.3697","COUNTRY_CODE":"US","TLE_LINE1":"1 49459U 21104BD  22310.43919939 -.00001455  00000-0 -73316-4 0  9995","REF_FRAME":"TEME","FILE":"3647066","OBJECT_NAME":"STARLINK-3141"},{"MEAN_MOTION_DDOT":"0.0000000000000","SEMIMAJOR_AXIS":"6917.901","OBJECT_ID":"2021-104BE","REV_AT_EPOCH":"5577","BSTAR":"-0.00010372000000","CENTER_NAME":"EARTH","GP_ID":"217063946","MEAN_MOTION":"15.08833352","MEAN_ANOMALY":"327.3591","COUNTRY_CODE":"US","TLE_LINE1":"1 49460U 21104BE  22310.30304061 -.00001939  00000-0 -10372-3 0  9996","FILE":"3647247","REF_FRAME":"TEME","OBJECT_NAME":"STARLINK-3140","TIME_SYSTEM":"UTC","APOAPSIS":"541.462","RA_OF_ASC_NODE":"293.1733","TLE_LINE2":"2 49460  53.2168 293.1733 0002452  32.7553 327.3591 15.08833352 55778","LAUNCH_DATE":"2021-11-13","NORAD_CAT_ID":"49460","ECCENTRICITY":"0.00024520","ELEMENT_SET_NO":"999","OBJECT_TYPE":"PAYLOAD","PERIOD":"95.438","EPOCH":"2022-11-06T07:16:22.708704","RCS_SIZE":"LARGE","MEAN_ELEMENT_THEORY":"SGP4","ARG_OF_PERICENTER":"32.7553","CLASSIFICATION_TYPE":"U","PERIAPSIS":"538.069","SITE":"AFETR","EPHEMERIS_TYPE":"0","INCLINATION":"53.2168","MEAN_MOTION_DOT":"-0.00001939","DECAY_DATE":null},{"CLASSIFICATION_TYPE":"U","ARG_OF_PERICENTER":"46.8469","PERIAPSIS":"538.349","MEAN_ELEMENT_THEORY":"SGP4","MEAN_MOTION_DOT":"-0.00000543","DECAY_DATE":null,"SITE":"AFETR","INCLINATION":"53.2172","EPHEMERIS_TYPE":"0","TLE_LINE2":"2 49724  53.2172 222.3520 0002052  46.8469 313.2694 15.08832420 51478","RA_OF_ASC_NODE":"222.3520","LAUNCH_DATE":"2021-12-02","TIME_SYSTEM":"UTC","APOAPSIS":"541.188","EPOCH":"2022-11-06T11:36:05.373792","PERIOD":"95.438","RCS_SIZE":"LARGE","NORAD_CAT_ID":"49724","ECCENTRICITY":"0.00020520","ELEMENT_SET_NO":"999","OBJECT_TYPE":"PAYLOAD","COUNTRY_CODE":"US","MEAN_ANOMALY":"313.2694","OBJECT_NAME":"STARLINK-3219","TLE_LINE1":"1 49724U 21115A   22310.48339553 -.00000543  00000-0 -16023-4 0  9994","REF_FRAME":"TEME","FILE":"3647066","BSTAR":"-0.00001602300000","REV_AT_EPOCH":"5147","OBJECT_ID":"2021-115A","CENTER_NAME":"EARTH","SEMIMAJOR_AXIS":"6917.904","MEAN_MOTION_DDOT":"0.0000000000000","MEAN_MOTION":"15.08832420","GP_ID":"217056884"}];
